[
    {
        "Altitude(m)": 555994.3793549014,
        "Argument of Periapsis(deg)": 0.006622991110713501,
        "Eccentricity": 0.0,
        "Inclination(deg)": 53.0,
        "Latitude(deg)": -9.625288821212651,
        "Longitude(deg)": 126.52894748596832,
        "Mean Anomaly(deg)": 191.90979286757755,
        "RAAN(deg)": 39.99014336852801,
        "Satellite Name": "Starlink Shell 1 187",
        "Satellite Number": 187,
        "Semi-Major Axis(m)": 6931778.249405717,
        "Time(s)": 190
    },
    {
        "Altitude(m)": 556111.4846288003,
        "Argument of Periapsis(deg)": 0.0069715695902247375,
        "Eccentricity": 0.0,
        "Inclination(deg)": 53.0,
        "Latitude(deg)": -10.124548547880629,
        "Longitude(deg)": 126.87547241385118,
        "Mean Anomaly(deg)": 192.53662407113427,
        "RAAN(deg)": 39.98962459845054,
        "Satellite Name": "Starlink Shell 1 187",
        "Satellite Number": 187,
        "Semi-Major Axis(m)": 6931778.249405717,
        "Time(s)": 200
    },
    {
        "Altitude(m)": 556230.95598631,
        "Argument of Periapsis(deg)": 0.007320148069735974,
        "Eccentricity": 0.0,
        "Inclination(deg)": 53.0,
        "Latitude(deg)": -10.623321807776957,
        "Longitude(deg)": 127.22318670486514,
        "Mean Anomaly(deg)": 193.16345527469102,
        "RAAN(deg)": 39.98910582837307,
        "Satellite Name": "Starlink Shell 1 187",
        "Satellite Number": 187,
        "Semi-Major Axis(m)": 6931778.249405717,
        "Time(s)": 210
    },
    {
        "Altitude(m)": 556352.75868789,
        "Argument of Periapsis(deg)": 0.007668726549247212,
        "Eccentricity": 0.0,
        "Inclination(deg)": 53.0,
        "Latitude(deg)": -11.121583213269819,
        "Longitude(deg)": 127.57215319196762,
        "Mean Anomaly(deg)": 193.7902864782477,
        "RAAN(deg)": 39.98858705829559,
        "Satellite Name": "Starlink Shell 1 187",
        "Satellite Number": 187,
        "Semi-Major Axis(m)": 6931778.249405717,
        "Time(s)": 220
    },
    {
        "Altitude(m)": 556476.8568129318,
        "Argument of Periapsis(deg)": 0.00801730502875845,
        "Eccentricity": 0.0,
        "Inclination(deg)": 53.0,
        "Latitude(deg)": -11.619307116085702,
        "Longitude(deg)": 127.92243524529916,
        "Mean Anomaly(deg)": 194.41711768180443,
        "RAAN(deg)": 39.98806828821812,
        "Satellite Name": "Starlink Shell 1 187",
        "Satellite Number": 187,
        "Semi-Major Axis(m)": 6931778.249405717,
        "Time(s)": 230
    },
    {
        "Altitude(m)": 556603.2132749178,
        "Argument of Periapsis(deg)": 0.008365883508269684,
        "Eccentricity": 0.0,
        "Inclination(deg)": 53.0,
        "Latitude(deg)": -12.116467593002879,
        "Longitude(deg)": 128.27409730292024,
        "Mean Anomaly(deg)": 195.04394888536112,
        "RAAN(deg)": 39.98754951814065,
        "Satellite Name": "Starlink Shell 1 187",
        "Satellite Number": 187,
        "Semi-Major Axis(m)": 6931778.249405717,
        "Time(s)": 240
    },
    {
        "Altitude(m)": 556731.7898371553,
        "Argument of Periapsis(deg)": 0.008714461987780921,
        "Eccentricity": 0.0,
        "Inclination(deg)": 53.0,
        "Latitude(deg)": -12.613038431288516,
        "Longitude(deg)": 128.6272038887432,
        "Mean Anomaly(deg)": 195.6707800889179,
        "RAAN(deg)": 39.98703074806318,
        "Satellite Name": "Starlink Shell 1 187",
        "Satellite Number": 187,
        "Semi-Major Axis(m)": 6931778.249405717,
        "Time(s)": 250
    },
    {
        "Altitude(m)": 556862.5471291175,
        "Argument of Periapsis(deg)": 0.009063040467292158,
        "Eccentricity": 0.0,
        "Inclination(deg)": 53.0,
        "Latitude(deg)": -13.108993113868518,
        "Longitude(deg)": 128.98182014339716,
        "Mean Anomaly(deg)": 196.2976112924746,
        "RAAN(deg)": 39.98651197798571,
        "Satellite Name": "Starlink Shell 1 187",
        "Satellite Number": 187,
        "Semi-Major Axis(m)": 6931778.249405717,
        "Time(s)": 260
    },
    {
        "Altitude(m)": 556995.4446633041,
        "Argument of Periapsis(deg)": 0.009411618946803396,
        "Eccentricity": 0.0,
        "Inclination(deg)": 53.0,
        "Latitude(deg)": -13.604304804219318,
        "Longitude(deg)": 129.33801235514525,
        "Mean Anomaly(deg)": 196.9244424960313,
        "RAAN(deg)": 39.98599320790824,
        "Satellite Name": "Starlink Shell 1 187",
        "Satellite Number": 187,
        "Semi-Major Axis(m)": 6931778.249405717,
        "Time(s)": 270
    },
    {
        "Altitude(m)": 557130.4408526864,
        "Argument of Periapsis(deg)": 0.009760197426314633,
        "Eccentricity": 0.0,
        "Inclination(deg)": 53.0,
        "Latitude(deg)": -14.098946330964758,
        "Longitude(deg)": 129.6958469779687,
        "Mean Anomaly(deg)": 197.55127369958802,
        "RAAN(deg)": 39.98547443783076,
        "Satellite Name": "Starlink Shell 1 187",
        "Satellite Number": 187,
        "Semi-Major Axis(m)": 6931778.249405717,
        "Time(s)": 280
    },
    {
        "Altitude(m)": 557267.4930286693,
        "Argument of Periapsis(deg)": 0.01010877590582587,
        "Eccentricity": 0.0,
        "Inclination(deg)": 53.0,
        "Latitude(deg)": -14.592890172169637,
        "Longitude(deg)": 130.05539116255073,
        "Mean Anomaly(deg)": 198.1781049031447,
        "RAAN(deg)": 39.98495566775329,
        "Satellite Name": "Starlink Shell 1 187",
        "Satellite Number": 187,
        "Semi-Major Axis(m)": 6931778.249405717,
        "Time(s)": 290
    },
    {
        "Altitude(m)": 557406.5574595932,
        "Argument of Periapsis(deg)": 0.010457354385337106,
        "Eccentricity": 0.0,
        "Inclination(deg)": 53.0,
        "Latitude(deg)": -15.086108439317934,
        "Longitude(deg)": 130.41671328727364,
        "Mean Anomaly(deg)": 198.80493610670143,
        "RAAN(deg)": 39.98443689767581,
        "Satellite Name": "Starlink Shell 1 187",
        "Satellite Number": 187,
        "Semi-Major Axis(m)": 6931778.249405717,
        "Time(s)": 300
    },
    {
        "Altitude(m)": 557547.5893697734,
        "Argument of Periapsis(deg)": 0.010805932864848343,
        "Eccentricity": 0.0,
        "Inclination(deg)": 53.0,
        "Latitude(deg)": -15.578572860958278,
        "Longitude(deg)": 130.77988197633618,
        "Mean Anomaly(deg)": 199.4317673102582,
        "RAAN(deg)": 39.983918127598336,
        "Satellite Name": "Starlink Shell 1 187",
        "Satellite Number": 187,
        "Semi-Major Axis(m)": 6931778.249405717,
        "Time(s)": 310
    },
    {
        "Altitude(m)": 557690.5429590073,
        "Argument of Periapsis(deg)": 0.01115451134435958,
        "Eccentricity": 0.0,
        "Inclination(deg)": 53.0,
        "Latitude(deg)": -16.070254766010187,
        "Longitude(deg)": 131.1449666307186,
        "Mean Anomaly(deg)": 200.05859851381487,
        "RAAN(deg)": 39.98339935752087,
        "Satellite Name": "Starlink Shell 1 187",
        "Satellite Number": 187,
        "Semi-Major Axis(m)": 6931778.249405717,
        "Time(s)": 320
    },
    {
        "Altitude(m)": 557835.3714226625,
        "Argument of Periapsis(deg)": 0.011503089823870818,
        "Eccentricity": 0.0,
        "Inclination(deg)": 53.0,
        "Latitude(deg)": -16.561125066717345,
        "Longitude(deg)": 131.51203795909987,
        "Mean Anomaly(deg)": 200.6854297173716,
        "RAAN(deg)": 39.9828805874434,
        "Satellite Name": "Starlink Shell 1 187",
        "Satellite Number": 187,
        "Semi-Major Axis(m)": 6931778.249405717,
        "Time(s)": 330
    },
    {
        "Altitude(m)": 557982.0269721567,
        "Argument of Periapsis(deg)": 0.011851668303382053,
        "Eccentricity": 0.0,
        "Inclination(deg)": 53.0,
        "Latitude(deg)": -17.051154241231266,
        "Longitude(deg)": 131.88116699582667,
        "Mean Anomaly(deg)": 201.3122609209283,
        "RAAN(deg)": 39.98236181736592,
        "Satellite Name": "Starlink Shell 1 187",
        "Satellite Number": 187,
        "Semi-Major Axis(m)": 6931778.249405717,
        "Time(s)": 340
    },
    {
        "Altitude(m)": 558130.460856003,
        "Argument of Periapsis(deg)": 0.012200246782893292,
        "Eccentricity": 0.0,
        "Inclination(deg)": 53.0,
        "Latitude(deg)": -17.540312315819385,
        "Longitude(deg)": 132.25242563165256,
        "Mean Anomaly(deg)": 201.93909212448503,
        "RAAN(deg)": 39.98184304728845,
        "Satellite Name": "Starlink Shell 1 187",
        "Satellite Number": 187,
        "Semi-Major Axis(m)": 6931778.249405717,
        "Time(s)": 350
    },
    {
        "Altitude(m)": 558280.6233812786,
        "Argument of Periapsis(deg)": 0.012548825262404526,
        "Eccentricity": 0.0,
        "Inclination(deg)": 53.0,
        "Latitude(deg)": -18.028568846683235,
        "Longitude(deg)": 132.6258871443422,
        "Mean Anomaly(deg)": 202.56592332804178,
        "RAAN(deg)": 39.98132427721097,
        "Satellite Name": "Starlink Shell 1 187",
        "Satellite Number": 187,
        "Semi-Major Axis(m)": 6931778.249405717,
        "Time(s)": 360
    },
    {
        "Altitude(m)": 558432.4639355514,
        "Argument of Periapsis(deg)": 0.012897403741915765,
        "Eccentricity": 0.0,
        "Inclination(deg)": 53.0,
        "Latitude(deg)": -18.515892901372226,
        "Longitude(deg)": 133.0016252162306,
        "Mean Anomaly(deg)": 203.19275453159847,
        "RAAN(deg)": 39.9808055071335,
        "Satellite Name": "Starlink Shell 1 187",
        "Satellite Number": 187,
        "Semi-Major Axis(m)": 6931778.249405717,
        "Time(s)": 370
    }
]